{
    "links": {
        "self": "http://www.neowsapp.com/rest/v1/neo/3715413?api_key=iIulBulltgU6a56xZRHN4H3l9WmuAYTsLGpBGhQ2"
    },
    "id": "3715413",
    "neo_reference_id": "3715413",
    "name": "(2015 BY516)",
    "designation": "2015 BY516",
    "nasa_jpl_url": "http://ssd.jpl.nasa.gov/sbdb.cgi?sstr=3715413",
    "absolute_magnitude_h": 22.3,
    "estimated_diameter": {
        "kilometers": {
            "estimated_diameter_min": 0.0921626549,
            "estimated_diameter_max": 0.2060819612
        },
        "meters": {
            "estimated_diameter_min": 92.1626548503,
            "estimated_diameter_max": 206.0819612321
        },
        "miles": {
            "estimated_diameter_min": 0.057267201,
            "estimated_diameter_max": 0.1280533543
        },
        "feet": {
            "estimated_diameter_min": 302.370924539,
            "estimated_diameter_max": 676.1219416887
        }
    },
    "is_potentially_hazardous_asteroid": false,
    "close_approach_data": [
        {
            "close_approach_date": "2015-01-27",
            "close_approach_date_full": "2015-Jan-27 14:22",
            "epoch_date_close_approach": 1422368520000,
            "relative_velocity": {
                "kilometers_per_second": "22.4097787359",
                "kilometers_per_hour": "80675.2034493908",
                "miles_per_hour": "50128.4340544284"
            },
            "miss_distance": {
                "astronomical": "0.3818949218",
                "lunar": "148.5571245802",
                "kilometers": "57130666.865096566",
                "miles": "35499350.2632259708"
            },
            "orbiting_body": "Earth"
        }
    ],
    "orbital_data": {
        "orbit_id": "5",
        "orbit_determination_date": "2019-12-18 11:24:45",
        "first_observation_date": "2015-01-29",
        "last_observation_date": "2015-02-05",
        "data_arc_in_days": 7,
        "observations_used": 19,
        "orbit_uncertainty": "9",
        "minimum_orbit_intersection": ".151167",
        "jupiter_tisserand_invariant": "2.879",
        "epoch_osculation": "2457057.5",
        "eccentricity": ".6621797020763078",
        "semi_major_axis": "2.907961325557169",
        "inclination": "13.45782154831662",
        "ascending_node_longitude": "296.2153250786243",
        "orbital_period": "1811.262377743584",
        "perihelion_distance": ".9823683613502975",
        "perihelion_argument": "249.3728006350678",
        "aphelion_distance": "4.83355428976404",
        "perihelion_time": "2457081.111396008382",
        "mean_anomaly": "355.3070837955533",
        "mean_motion": ".1987564057110694",
        "equinox": "J2000",
        "orbit_class": {
            "orbit_class_type": "APO",
            "orbit_class_description": "Near-Earth asteroid orbits which cross the Earth’s orbit similar to that of 1862 Apollo",
            "orbit_class_range": "a (semi-major axis) > 1.0 AU; q (perihelion) < 1.017 AU"
        }
    },
    "is_sentry_object": false
}